{
  "type": "FeatureCollection",
  "features": [
    {
      "type": "Feature",
      "properties": {
        "norad_id": 29937,
        "name": "FENGYUN 1C DEB",
        "group": "fengyun-1c-debris",
        "lat": 4.547479124823969,
        "lon": -162.09760041029963,
        "alt_km": 904.1877222640878,
        "timestamp": "2025-12-22T11:33:20.711851+00:00",
        "meta_object_name": "FENGYUN 1C DEB",
        "meta_object_id": "1999-025JK",
        "meta_epoch": "2025-12-22T00:43:08.359968",
        "meta_mean_motion": 14.04360328,
        "meta_eccentricity": 0.0031931,
        "meta_inclination": 98.8016,
        "meta_ra_of_asc_node": 16.7588,
        "meta_arg_of_pericenter": 355.7833,
        "meta_mean_anomaly": 57.9603,
        "meta_ephemeris_type": 0,
        "meta_classification_type": "U",
        "meta_norad_cat_id": 29937,
        "meta_element_set_no": 999,
        "meta_rev_at_epoch": 97066,
        "meta_bstar": -5.3898e-05,
        "meta_mean_motion_dot": -1.29e-06,
        "meta_mean_motion_ddot": 0,
        "tle_line1": "1 29937U 99025JK  25356.02995787 -.00000129  00000+0 -53898-4 0  9993",
        "tle_line2": "2 29937  98.8016  16.7588 0031931 355.7833  57.9603 14.04360328970669"
      },
      "geometry": {
        "type": "Point",
        "coordinates": [
          -162.09760041029963,
          4.547479124823969
        ]
      }
    },
    {
      "type": "Feature",
      "properties": {
        "norad_id": 29938,
        "name": "FENGYUN 1C DEB",
        "group": "fengyun-1c-debris",
        "lat": -29.038794554998596,
        "lon": 161.30829971735386,
        "alt_km": 867.046408200782,
        "timestamp": "2025-12-22T11:33:20.711861+00:00",
        "meta_object_name": "FENGYUN 1C DEB",
        "meta_object_id": "1999-025JL",
        "meta_epoch": "2025-12-21T22:54:22.370976",
        "meta_mean_motion": 14.07463659,
        "meta_eccentricity": 0.0032614,
        "meta_inclination": 98.8027,
        "meta_ra_of_asc_node": 345.7301,
        "meta_arg_of_pericenter": 284.1806,
        "meta_mean_anomaly": 136.4074,
        "meta_ephemeris_type": 0,
        "meta_classification_type": "U",
        "meta_norad_cat_id": 29938,
        "meta_element_set_no": 999,
        "meta_rev_at_epoch": 97186,
        "meta_bstar": 5.3841e-05,
        "meta_mean_motion_dot": 4.8e-07,
        "meta_mean_motion_ddot": 0,
        "tle_line1": "1 29938U 99025JL  25355.95442559  .00000048  00000+0  53841-4 0  9995",
        "tle_line2": "2 29938  98.8027 345.7301 0032614 284.1806 136.4074 14.07463659971866"
      },
      "geometry": {
        "type": "Point",
        "coordinates": [
          161.30829971735386,
          -29.038794554998596
        ]
      }
    },
    {
      "type": "Feature",
      "properties": {
        "norad_id": 29939,
        "name": "FENGYUN 1C DEB",
        "group": "fengyun-1c-debris",
        "lat": 1.3410496998480108,
        "lon": -4.41515348959416,
        "alt_km": 871.0703984015236,
        "timestamp": "2025-12-22T11:33:20.711871+00:00",
        "meta_object_name": "FENGYUN 1C DEB",
        "meta_object_id": "1999-025JM",
        "meta_epoch": "2025-12-21T22:13:56.733312",
        "meta_mean_motion": 14.1208653,
        "meta_eccentricity": 0.0067248,
        "meta_inclination": 98.7098,
        "meta_ra_of_asc_node": 355.2512,
        "meta_arg_of_pericenter": 112.7509,
        "meta_mean_anomaly": 308.974,
        "meta_ephemeris_type": 0,
        "meta_classification_type": "U",
        "meta_norad_cat_id": 29939,
        "meta_element_set_no": 999,
        "meta_rev_at_epoch": 97590,
        "meta_bstar": 4.563e-05,
        "meta_mean_motion_dot": 4.3e-07,
        "meta_mean_motion_ddot": 0,
        "tle_line1": "1 29939U 99025JM  25355.92635108  .00000043  00000+0  45630-4 0  9999",
        "tle_line2": "2 29939  98.7098 355.2512 0067248 112.7509 308.9740 14.12086530975901"
      },
      "geometry": {
        "type": "Point",
        "coordinates": [
          -4.41515348959416,
          1.3410496998480108
        ]
      }
    },
    {
      "type": "Feature",
      "properties": {
        "norad_id": 29940,
        "name": "FENGYUN 1C DEB",
        "group": "fengyun-1c-debris",
        "lat": 41.585927911004745,
        "lon": -1.8444810182965263,
        "alt_km": 779.0735075973107,
        "timestamp": "2025-12-22T11:33:20.711881+00:00",
        "meta_object_name": "FENGYUN 1C DEB",
        "meta_object_id": "1999-025JN",
        "meta_epoch": "2025-12-21T23:39:25.002720",
        "meta_mean_motion": 14.18843811,
        "meta_eccentricity": 0.0074644,
        "meta_inclination": 98.621,
        "meta_ra_of_asc_node": 5.4104,
        "meta_arg_of_pericenter": 73.4752,
        "meta_mean_anomaly": 318.2453,
        "meta_ephemeris_type": 0,
        "meta_classification_type": "U",
        "meta_norad_cat_id": 29940,
        "meta_element_set_no": 999,
        "meta_rev_at_epoch": 97619,
        "meta_bstar": 0.00054572,
        "meta_mean_motion_dot": 1.125e-05,
        "meta_mean_motion_ddot": 0,
        "tle_line1": "1 29940U 99025JN  25355.98570605  .00001125  00000+0  54572-3 0  9993",
        "tle_line2": "2 29940  98.6210   5.4104 0074644  73.4752 318.2453 14.18843811976196"
      },
      "geometry": {
        "type": "Point",
        "coordinates": [
          -1.8444810182965263,
          41.585927911004745
        ]
      }
    },
    {
      "type": "Feature",
      "properties": {
        "norad_id": 29942,
        "name": "FENGYUN 1C DEB",
        "group": "fengyun-1c-debris",
        "lat": -48.86734445890007,
        "lon": 72.27167889377756,
        "alt_km": 781.153253166789,
        "timestamp": "2025-12-22T11:33:20.711891+00:00",
        "meta_object_name": "FENGYUN 1C DEB",
        "meta_object_id": "1999-025JQ",
        "meta_epoch": "2025-12-22T03:23:36.453696",
        "meta_mean_motion": 14.30444261,
        "meta_eccentricity": 0.0049173,
        "meta_inclination": 98.6362,
        "meta_ra_of_asc_node": 61.9126,
        "meta_arg_of_pericenter": 248.0416,
        "meta_mean_anomaly": 111.5536,
        "meta_ephemeris_type": 0,
        "meta_classification_type": "U",
        "meta_norad_cat_id": 29942,
        "meta_element_set_no": 999,
        "meta_rev_at_epoch": 98003,
        "meta_bstar": 0.00060687,
        "meta_mean_motion_dot": 1.556e-05,
        "meta_mean_motion_ddot": 0,
        "tle_line1": "1 29942U 99025JQ  25356.14139414  .00001556  00000+0  60687-3 0  9995",
        "tle_line2": "2 29942  98.6362  61.9126 0049173 248.0416 111.5536 14.30444261980037"
      },
      "geometry": {
        "type": "Point",
        "coordinates": [
          72.27167889377756,
          -48.86734445890007
        ]
      }
    },
    {
      "type": "Feature",
      "properties": {
        "norad_id": 29943,
        "name": "FENGYUN 1C DEB",
        "group": "fengyun-1c-debris",
        "lat": -70.64384631912404,
        "lon": 158.01399567652896,
        "alt_km": 852.5336693319068,
        "timestamp": "2025-12-22T11:33:20.711901+00:00",
        "meta_object_name": "FENGYUN 1C DEB",
        "meta_object_id": "1999-025JR",
        "meta_epoch": "2025-12-21T22:43:02.401248",
        "meta_mean_motion": 14.09673125,
        "meta_eccentricity": 0.0035271,
        "meta_inclination": 98.7265,
        "meta_ra_of_asc_node": 3.4218,
        "meta_arg_of_pericenter": 200.5388,
        "meta_mean_anomaly": 218.5734,
        "meta_ephemeris_type": 0,
        "meta_classification_type": "U",
        "meta_norad_cat_id": 29943,
        "meta_element_set_no": 999,
        "meta_rev_at_epoch": 97436,
        "meta_bstar": 3.8364e-05,
        "meta_mean_motion_dot": 2.5e-07,
        "meta_mean_motion_ddot": 0,
        "tle_line1": "1 29943U 99025JR  25355.94655557  .00000025  00000+0  38364-4 0  9992",
        "tle_line2": "2 29943  98.7265   3.4218 0035271 200.5388 218.5734 14.09673125974365"
      },
      "geometry": {
        "type": "Point",
        "coordinates": [
          158.01399567652896,
          -70.64384631912404
        ]
      }
    },
    {
      "type": "Feature",
      "properties": {
        "norad_id": 29944,
        "name": "FENGYUN 1C DEB",
        "group": "fengyun-1c-debris",
        "lat": -80.6700862545706,
        "lon": 6.7185418535576,
        "alt_km": 574.1978563839621,
        "timestamp": "2025-12-22T11:33:20.711911+00:00",
        "meta_object_name": "FENGYUN 1C DEB",
        "meta_object_id": "1999-025JS",
        "meta_epoch": "2025-12-21T18:11:48.839424",
        "meta_mean_motion": 14.87639101,
        "meta_eccentricity": 0.0166508,
        "meta_inclination": 99.005,
        "meta_ra_of_asc_node": 291.0495,
        "meta_arg_of_pericenter": 203.117,
        "meta_mean_anomaly": 156.2491,
        "meta_ephemeris_type": 0,
        "meta_classification_type": "U",
        "meta_norad_cat_id": 29944,
        "meta_element_set_no": 999,
        "meta_rev_at_epoch": 588,
        "meta_bstar": 0.0005112,
        "meta_mean_motion_dot": 5.928e-05,
        "meta_mean_motion_ddot": 0,
        "tle_line1": "1 29944U 99025JS  25355.75820416  .00005928  00000+0  51120-3 0  9991",
        "tle_line2": "2 29944  99.0050 291.0495 0166508 203.1170 156.2491 14.87639101  5882"
      },
      "geometry": {
        "type": "Point",
        "coordinates": [
          6.7185418535576,
          -80.6700862545706
        ]
      }
    }
  ]
}